[{"OBJECT_NAME":"HYPERFIELD-1B","OBJECT_ID":"2025-135AA","EPOCH":"2026-03-09T21:55:06.230784","MEAN_MOTION":15.21415423,"ECCENTRICITY":5.345e-5,"INCLINATION":97.4541,"RA_OF_ASC_NODE":185.0442,"ARG_OF_PERICENTER":81.1107,"MEAN_ANOMALY":279.0189,"EPHEMERIS_TYPE":0,"CLASSIFICATION_TYPE":"U","NORAD_CAT_ID":64552,"ELEMENT_SET_NO":999,"REV_AT_EPOCH":3978,"BSTAR":0.00030259175,"MEAN_MOTION_DOT":6.723e-5,"MEAN_MOTION_DDOT":0},{"OBJECT_NAME":"LEO EXPRESS 3","OBJECT_ID":"2025-276X","EPOCH":"2026-03-09T17:01:27.083136","MEAN_MOTION":15.18911167,"ECCENTRICITY":0.00089891,"INCLINATION":97.4301,"RA_OF_ASC_NODE":143.9034,"ARG_OF_PERICENTER":143.3594,"MEAN_ANOMALY":216.8257,"EPHEMERIS_TYPE":0,"CLASSIFICATION_TYPE":"U","NORAD_CAT_ID":66687,"ELEMENT_SET_NO":999,"REV_AT_EPOCH":1531,"BSTAR":0.00062123771,"MEAN_MOTION_DOT":0.00012924,"MEAN_MOTION_DDOT":0}]
